[Satellite]
VERSION=1.1
NAME=SCD 1
NICKNAME=SCD 1
TLE1=1 22490U 93009B   15054.61399517  .00000442  00000-0  73381-4 0  9990
TLE2=2 22490  24.9702 104.2309 0043500  60.3224  75.2534 14.44276367163360
